NORAD_CAT_ID,OBJECT_NAME,OBJECT_TYPE,EPOCH,MEAN_MOTION,ECCENTRICITY,INCLINATION,RA_OF_ASC_NODE,ARG_OF_PERICENTER,MEAN_ANOMALY,BSTAR,MEAN_MOTION_DOT,MEAN_MOTION_DDOT,TLE_LINE0,TLE_LINE1,TLE_LINE2,SEMIMAJOR_AXIS,PERIOD,APOGEE,PERIGEE,DECAYED
55763.0,STARLINK-5593,PAYLOAD,2024-05-15 05:24:58,14.98323227,0.0003171,69.9984,117.1259,267.5993,92.4803,0.00035748,4.174e-05,0.0,0 STARLINK-5593,1 55763U 23028Y   24136.22568027  .00004174  00000-0  35748-3 0  9995,2 55763  69.9984 117.1259 0003171 267.5993  92.4803 14.98323227 66663,6950.214,96.107,574.283,569.875,0.0
55763.0,STARLINK-5593,PAYLOAD,2024-05-15 08:37:14,14.98329405,0.0003161,69.9997,116.7895,268.3301,91.7496,0.00044548,5.226e-05,0.0,0 STARLINK-5593,1 55763U 23028Y   24136.35920030  .00005226  00000-0  44548-3 0  9992,2 55763  69.9997 116.7895 0003161 268.3301  91.7496 14.98329405 66685,6950.195,96.107,574.257,569.863,0.0
55763.0,STARLINK-5593,PAYLOAD,2024-05-15 23:02:26,14.98342273,0.0003177,69.9996,115.2744,268.1001,91.9794,0.0004919,5.783e-05,0.0,0 STARLINK-5593,1 55763U 23028Y   24136.96003406  .00005783  00000-0  49190-3 0  9994,2 55763  69.9996 115.2744 0003177 268.1001  91.9794 14.98342273 66774,6950.155,96.106,574.228,569.812,0.0
55763.0,STARLINK-5593,PAYLOAD,2024-05-16 05:26:58,14.98353154,0.0003206,70.0,114.6013,267.949,92.1302,0.00073906,8.742e-05,0.0,0 STARLINK-5593,1 55763U 23028Y   24137.22707009  .00008742  00000-0  73906-3 0  9994,2 55763  70.0000 114.6013 0003206 267.9490  92.1302 14.98353154 66810,6950.121,96.106,574.214,569.758,0.0
55763.0,STARLINK-5593,PAYLOAD,2024-05-16 08:39:14,14.98360985,0.0003198,70.0003,114.2645,267.5962,92.4831,0.00099705,0.00011833,0.0,0 STARLINK-5593,1 55763U 23028Y   24137.36058731  .00011833  00000-0  99705-3 0  9990,2 55763  70.0003 114.2645 0003198 267.5962  92.4831 14.98360985 66832,6950.097,96.105,574.185,569.739,0.0
55763.0,STARLINK-5593,PAYLOAD,2024-05-17 03:52:50,14.98348223,0.0002852,70.0009,112.245,267.7653,92.318,0.00014551,1.644e-05,0.0,0 STARLINK-5593,1 55763U 23028Y   24138.16170055  .00001644  00000-0  14551-3 0  9998,2 55763  70.0009 112.2450 0002852 267.7653  92.3180 14.98348223 66955,6950.137,96.106,573.984,570.019,0.0
55763.0,STARLINK-5593,PAYLOAD,2024-05-17 08:41:14,14.98350869,0.0002938,70.0002,111.74,265.5978,94.4846,0.00029718,3.457e-05,0.0,0 STARLINK-5593,1 55763U 23028Y   24138.36197721  .00003457  00000-0  29718-3 0  9994,2 55763  70.0002 111.7400 0002938 265.5978  94.4846 14.98350869 66982,6950.128,96.106,574.035,569.951,0.0
55763.0,STARLINK-5593,PAYLOAD,2024-05-17 15:05:48,14.98326026,0.0002951,70.0002,111.0664,271.4003,88.6818,-0.00023445,-2.889e-05,0.0,0 STARLINK-5593,1 55763U 23028Y   24138.62902898 -.00002889  00000-0 -23445-3 0  9993,2 55763  70.0002 111.0664 0002951 271.4003  88.6818 14.98326026 67025,6950.205,96.107,574.121,570.019,0.0
55763.0,STARLINK-5593,PAYLOAD,2024-05-17 23:06:28,14.98321323,0.0002469,70.0005,110.2254,271.5812,88.5064,-0.00040857,-4.963e-05,0.0,0 STARLINK-5593,1 55763U 23028Y   24138.96283306 -.00004963  00000-0 -40857-3 0  9997,2 55763  70.0005 110.2254 0002469 271.5812  88.5064 14.98321323 67079,6950.22,96.108,573.801,570.369,0.0
55763.0,STARLINK-5593,PAYLOAD,2024-05-18 03:54:53,14.98314369,0.0002727,70.0009,109.7212,267.3165,92.7682,-0.00048256,-5.844e-05,0.0,0 STARLINK-5593,1 55763U 23028Y   24139.16311771 -.00005844  00000-0 -48256-3 0  9998,2 55763  70.0009 109.7212 0002727 267.3165  92.7682 14.98314369 67100,6950.241,96.108,574.002,570.211,0.0
55763.0,STARLINK-5593,PAYLOAD,2024-05-18 07:07:10,14.9831749,0.0002651,70.0,109.3849,265.63,94.4556,-0.00027417,-3.362e-05,0.0,0 STARLINK-5593,1 55763U 23028Y   24139.29664779 -.00003362  00000-0 -27417-3 0  9990,2 55763  70.0000 109.3849 0002651 265.6300  94.4556 14.98317490 67120,6950.232,96.108,573.939,570.254,0.0
55763.0,STARLINK-5593,PAYLOAD,2024-05-18 15:07:49,14.983294,0.0002823,69.9998,108.5426,267.1954,92.8882,-0.00014358,-1.806e-05,0.0,0 STARLINK-5593,1 55763U 23028Y   24139.63043841 -.00001806  00000-0 -14358-3 0  9990,2 55763  69.9998 108.5426 0002823 267.1954  92.8882 14.98329400 67171,6950.195,96.107,574.022,570.098,0.0
55763.0,STARLINK-5593,PAYLOAD,2024-05-18 23:08:29,14.98333786,0.0002934,70.0002,107.7002,271.4985,88.5838,0.0001385,1.56e-05,0.0,0 STARLINK-5593,1 55763U 23028Y   24139.96423313  .00001560  00000-0  13850-3 0  9993,2 55763  70.0002 107.7002 0002934 271.4985  88.5838 14.98333786 67227,6950.181,96.107,574.085,570.007,0.0
55763.0,STARLINK-5593,PAYLOAD,2024-05-19 07:09:10,14.98340255,0.0002848,70.0006,106.8593,270.799,89.2842,0.0011613,0.00013794,0.0,0 STARLINK-5593,1 55763U 23028Y   24140.29803904  .00013794  00000-0  11613-2 0  9995,2 55763  70.0006 106.8593 0002848 270.7990  89.2842 14.98340255 67275,6950.161,96.106,574.006,570.047,0.0
55763.0,STARLINK-5593,PAYLOAD,2024-05-20 03:58:54,14.98352149,0.0003012,70.0002,104.6694,269.1132,90.9682,0.000734,8.681e-05,0.0,0 STARLINK-5593,1 55763U 23028Y   24141.16591010  .00008681  00000-0  73400-3 0  9996,2 55763  70.0002 104.6694 0003012 269.1132  90.9682 14.98352149 67404,6950.124,96.106,574.083,569.896,0.0
55763.0,STARLINK-5593,PAYLOAD,2024-05-20 07:11:10,14.98357055,0.0003003,70.0002,104.3328,268.696,91.3855,0.00088845,0.00010531,0.0,0 STARLINK-5593,1 55763U 23028Y   24141.29942751  .00010531  00000-0  88845-3 0  9998,2 55763  70.0002 104.3328 0003003 268.6960  91.3855 14.98357055 67428,6950.109,96.105,574.061,569.887,0.0
55763.0,STARLINK-5593,PAYLOAD,2024-05-21 04:00:55,14.98336287,0.0002641,70.001,102.1453,264.8645,95.2213,-4.3822e-05,-6.16e-06,0.0,0 STARLINK-5593,1 55763U 23028Y   24142.16730799 -.00000616  00000-0 -43822-4 0  9994,2 55763  70.0010 102.1453 0002641 264.8645  95.2213 14.98336287 67556,6950.173,96.107,573.874,570.203,0.0
55763.0,STARLINK-5593,PAYLOAD,2024-05-21 07:13:11,14.98336703,0.0002562,70.0,101.8091,264.2073,95.8794,3.4817e-05,3.23e-06,0.0,0 STARLINK-5593,1 55763U 23028Y   24142.30082994  .00000323  00000-0  34817-4 0  9994,2 55763  70.0000 101.8091 0002562 264.2073  95.8794 14.98336703 67575,6950.172,96.107,573.818,570.257,0.0
55763.0,STARLINK-5593,PAYLOAD,2024-05-21 21:38:23,14.98340966,0.0002813,69.9999,100.2953,266.4573,93.6264,1.315e-05,6.4e-07,0.0,0 STARLINK-5593,1 55763U 23028Y   24142.90166383  .00000064  00000-0  13150-4 0  9994,2 55763  69.9999 100.2953 0002813 266.4573  93.6264 14.98340966 67661,6950.159,96.106,573.979,570.069,0.0
55763.0,STARLINK-5593,PAYLOAD,2024-05-22 04:02:55,14.98342904,0.0002816,69.9997,99.6214,266.1967,93.887,4.9729e-05,5.01e-06,0.0,0 STARLINK-5593,1 55763U 23028Y   24143.16869943  .00000501  00000-0  49729-4 0  9992,2 55763  69.9997  99.6214 0002816 266.1967  93.8870 14.98342904 67701,6950.153,96.106,573.975,570.061,0.0
55763.0,STARLINK-5593,PAYLOAD,2024-05-22 07:15:11,14.98343817,0.0002396,70.0002,99.285,262.0893,97.9994,7.9177e-05,8.52e-06,0.0,0 STARLINK-5593,1 55763U 23028Y   24143.30221726  .00000852  00000-0  79177-4 0  9998,2 55763  70.0002  99.2850 0002396 262.0893  97.9994 14.98343817 67727,6950.15,96.106,573.68,570.35,0.0
55763.0,STARLINK-5593,PAYLOAD,2024-05-22 21:40:24,14.98331091,0.0002206,70.0014,97.7714,253.6593,106.4324,9.431e-05,1.033e-05,0.0,0 STARLINK-5593,1 55763U 23028Y   24143.90306186  .00001033  00000-0  94310-4 0  9996,2 55763  70.0014  97.7714 0002206 253.6593 106.4324 14.98331091 67819,6950.19,96.107,573.588,570.521,0.0
55763.0,STARLINK-5593,PAYLOAD,2024-05-23 04:04:57,14.98327141,0.0002427,70.0008,97.0977,256.6327,103.4562,3.3714e-05,3.09e-06,0.0,0 STARLINK-5593,1 55763U 23028Y   24144.17010563  .00000309  00000-0  33714-4 0  9993,2 55763  70.0008  97.0977 0002427 256.6327 103.4562 14.98327141 67855,6950.202,96.107,573.754,570.38,0.0
55763.0,STARLINK-5593,PAYLOAD,2024-05-23 07:17:11,14.98400386,0.0002157,70.0007,96.7594,256.7986,103.2933,-0.0013074,-0.00015685,0.0,0 STARLINK-5593,1 55763U 23028Y   24144.30360385 -.00015685  00000-0 -13074-2 0  9998,2 55763  70.0007  96.7594 0002157 256.7986 103.2933 14.98400386 67872,6949.975,96.102,573.339,570.341,0.0
55763.0,STARLINK-5593,PAYLOAD,2024-05-23 21:42:25,14.98336119,0.0002448,70.0005,95.245,256.911,103.1776,8.7363e-06,1.1e-07,0.0,0 STARLINK-5593,1 55763U 23028Y   24144.90445945  .00000011  00000-0  87363-5 0  9990,2 55763  70.0005  95.2450 0002448 256.9110 103.1776 14.98336119 67965,6950.174,96.107,573.74,570.338,0.0
55763.0,STARLINK-5593,PAYLOAD,2024-05-24 04:06:57,14.98336737,0.0002581,70.0001,94.5713,256.5354,103.5517,3.3252e-05,3.04e-06,0.0,0 STARLINK-5593,1 55763U 23028Y   24145.17149724  .00000304  00000-0  33252-4 0  9998,2 55763  70.0001  94.5713 0002581 256.5354 103.5517 14.98336737 68008,6950.172,96.107,573.831,570.243,0.0
55763.0,STARLINK-5593,PAYLOAD,2024-05-24 05:43:04,14.98348491,0.0002603,69.9999,94.4027,256.846,103.2409,-8.8046e-05,-1.144e-05,0.0,0 STARLINK-5593,1 55763U 23028Y   24145.23825207 -.00001144  00000-0 -88046-4 0  9998,2 55763  69.9999  94.4027 0002603 256.8460 103.2409 14.98348491 68012,6950.136,96.106,573.81,570.192,0.0
55763.0,STARLINK-5593,PAYLOAD,2024-05-24 21:44:26,14.98325982,0.0002723,70.0001,92.7203,265.1198,94.965,2.2252e-05,1.73e-06,0.0,0 STARLINK-5593,1 55763U 23028Y   24145.90586381  .00000173  00000-0  22252-4 0  9995,2 55763  70.0001  92.7203 0002723 265.1198  94.9650 14.98325982 68115,6950.205,96.107,573.963,570.178,0.0
55763.0,STARLINK-5593,PAYLOAD,2024-05-25 04:08:59,14.9832404,0.0002788,69.9998,92.0471,262.329,97.7552,-1.2451e-05,-2.41e-06,0.0,0 STARLINK-5593,1 55763U 23028Y   24146.17290627 -.00000241  00000-0 -12451-4 0  9998,2 55763  69.9998  92.0471 0002788 262.3290  97.7552 14.98324040 68150,6950.211,96.107,574.014,570.139,0.0
55763.0,STARLINK-5593,PAYLOAD,2024-05-25 13:45:47,14.98327987,0.0002659,70.0003,91.0362,267.0559,93.0296,1.1202e-05,4.1e-07,0.0,0 STARLINK-5593,1 55763U 23028Y   24146.57346427  .00000041  00000-0  11202-4 0  9991,2 55763  70.0003  91.0362 0002659 267.0559  93.0296 14.98327987 68219,6950.199,96.107,573.912,570.216,0.0
